GPS BIIR-2  (PRN 13)    
1 24876U 97035A   20201.34815320  .00000068  00000-0  00000-0 0  9996
2 24876  55.4600 182.9088 0040435  58.6594 301.7234  2.00564930168653
GPS BIIR-3  (PRN 11)    
1 25933U 99055A   20201.18216683 -.00000061  00000-0  00000-0 0  9998
2 25933  52.3203  28.6397 0158393 115.5689  65.7105  2.00558121152273
GPS BIIR-4  (PRN 20)    
1 26360U 00025A   20201.62363354 -.00000026  00000-0  00000-0 0  9990
2 26360  53.5474 107.8330 0052363 155.7279  22.5036  2.00565056147979
GPS BIIR-5  (PRN 28)    
1 26407U 00040A   20201.44430213 -.00000026  00000-0  00000-0 0  9998
2 26407  55.9709 300.9116 0186232 279.4205  91.5580  2.00564879146658
GPS BIIR-6  (PRN 14)    
1 26605U 00071A   20201.04235144  .00000065  00000-0  00000-0 0  9996
2 26605  55.0359 180.2075 0117750 250.9606 105.8159  2.00563917144236
GPS BIIR-8  (PRN 16)    
1 27663U 03005A   20201.26617500 -.00000027  00000-0  00000+0 0  9993
2 27663  56.0261 300.7064 0113074  35.5334 328.0155  2.00549851128004
GPS BIIR-9  (PRN 21)    
1 27704U 03010A   20200.87304053 -.00000045  00000-0  00000-0 0  9998
2 27704  54.6492  51.7151 0240115 284.8004  86.1483  2.00397372126801
GPS BIIR-10 (PRN 22)    
1 28129U 03058A   20201.04077159 -.00000029  00000-0  00000+0 0  9997
2 28129  53.3577 110.5664 0071357 295.2251  64.0542  2.00550283121488
GPS BIIR-11 (PRN 19)    
1 28190U 04009A   20201.28589163 -.00000066  00000-0  00000-0 0  9993
2 28190  56.2708   1.5068 0091912  95.8871  78.9266  2.00561852119682
GPS BIIR-13 (PRN 02)    
1 28474U 04045A   20201.40808312 -.00000042  00000-0  00000-0 0  9996
2 28474  54.9915  51.5826 0199351 267.4296 272.9963  2.00556086115132
GPS BIIRM-1 (PRN 17)    
1 28874U 05038A   20201.26307253 -.00000066  00000-0  00000-0 0  9991
2 28874  56.3717 358.8980 0134808 265.9979 272.5027  2.00557737108530
GPS BIIRM-2 (PRN 31)    
1 29486U 06042A   20201.18734306  .00000088  00000-0  00000-0 0  9994
2 29486  54.8532 237.1105 0095132   6.5429  40.3600  2.00570325101125
GPS BIIRM-3 (PRN 12)    
1 29601U 06052A   20200.57317582 -.00000030  00000-0  00000+0 0  9996
2 29601  56.0147 299.6536 0077640  66.2201 294.6294  2.00565646100140
GPS BIIRM-4 (PRN 15)    
1 32260U 07047A   20201.37511281  .00000044  00000-0  00000-0 0  9992
2 32260  53.1942 169.4682 0122942  50.5396 310.5093  2.00557896 93558
GPS BIIRM-5 (PRN 29)    
1 32384U 07062A   20201.44448524 -.00000066  00000-0  00000-0 0  9998
2 32384  56.4694 359.5697 0014151 124.8910  57.6545  2.00552037 92251
GPS BIIRM-6 (PRN 07)    
1 32711U 08012A   20200.79620598  .00000089  00000-0  00000-0 0  9992
2 32711  54.6006 236.2224 0142632 224.3352 134.5988  2.00565742 90465
GPS BIIRM-8 (PRN 05)    
1 35752U 09043A   20200.99646534 -.00000026  00000-0  00000-0 0  9997
2 35752  54.6083 113.7601 0058530  45.8371 130.9954  2.00560342 80054
GPS BIIF-1  (PRN 25)    
1 36585U 10022A   20200.57879304 -.00000023  00000-0  00000+0 0  9994
2 36585  55.2881 295.6663 0089088  53.0199 286.8168  2.00553129 74271
GPS BIIF-2  (PRN 01)    
1 37753U 11036A   20201.48848858 -.00000037  00000-0  00000-0 0  9995
2 37753  56.1971  56.0128 0098766  45.2648 317.9546  2.00560285 65984
GPS BIIF-3  (PRN 24)    
1 38833U 12053A   20200.97662278  .00000090  00000-0  00000-0 0  9996
2 38833  53.6435 232.0307 0096438  37.1866 323.5595  2.00566397 56248
GPS BIIF-4  (PRN 27)    
1 39166U 13023A   20200.33643070 -.00000070  00000-0  00000+0 0  9991
2 39166  56.0330 355.5699 0081973  31.8242 328.6760  2.00564778 52552
GPS BIIF-5  (PRN 30)    
1 39533U 14008A   20201.33544148  .00000084  00000-0  00000-0 0  9995
2 39533  53.7580 237.4540 0048345 200.6709 159.2188  2.00569596 46406
GPS BIIF-6  (PRN 06)    
1 39741U 14026A   20201.11542591 -.00000039  00000-0  00000-0 0  9993
2 39741  56.1709  55.5549 0019967 295.8084  64.0623  2.00575224 45237
GPS BIIF-7  (PRN 09)    
1 40105U 14045A   20200.20901468  .00000060  00000-0  00000-0 0  9994
2 40105  54.5949 174.7212 0013341 104.2911 255.8385  2.00561043 42780
GPS BIIF-8  (PRN 03)    
1 40294U 14068A   20200.07472189 -.00000029  00000-0  00000+0 0  9991
2 40294  55.3579 115.6649 0029163  42.0844 318.1439  2.00550554 41864
GPS BIIF-9  (PRN 26)    
1 40534U 15013A   20199.71518206 -.00000027  00000-0  00000+0 0  9996
2 40534  54.2033 293.6244 0047311   9.6854 350.4500  2.00566192 38923
GPS BIIF-10 (PRN 08)    
1 40730U 15033A   20200.87275908 -.00000070  00000-0  00000-0 0  9994
2 40730  55.5487 354.7061 0053802 354.2287   5.7150  2.00561471 36705
GPS BIIF-11 (PRN 10)    
1 41019U 15062A   20197.93203323 -.00000036  00000-0  00000-0 0  9993
2 41019  55.3539 115.5773 0058134 210.6203 149.0426  2.00564318 34463
GPS BIIF-12 (PRN 32)    
1 41328U 16007A   20200.02025195  .00000062  00000-0  00000-0 0  9998
2 41328  54.8294 175.2229 0042406 223.0613 136.5896  2.00556110 32567
GPS BIII-1  (PRN 04)    
1 43873U 18109A   20201.41011427  .00000059  00000-0  00000+0 0  9992
2 43873  55.0110 177.4424 0009169 220.3871 316.9552  2.00565379 11725
GPS BIII-2  (PRN 18)    
1 44506U 19056A   20201.05351763 -.00000041  00000-0  00000-0 0  9991
2 44506  55.2573  56.9726 0006752 165.5735  18.3082  2.00558734  6760
